{"type": "FeatureCollection", "features": [ {"type": "Feature", "properties": {"norad_id": 42741, "name": "EUTELSAT 172B", "group": "eutelsat", "lat": -0.00017503044075192005, "lon": -177.23413295316197, "alt_km": 35786.06499281597, "timestamp": "2025-12-08T19:31:48.499239+00:00", "meta": {"OBJECT_NAME": "EUTELSAT 172B", "OBJECT_ID": "2017-029B", "EPOCH": "2025-12-08T02:26:16.735776", "MEAN_MOTION": 1.00270118, "ECCENTRICITY": 1.898e-05, "INCLINATION": 0.0115, "RA_OF_ASC_NODE": 86.953, "ARG_OF_PERICENTER": 151.0152, "MEAN_ANOMALY": 47.7234, "EPHEMERIS_TYPE": 0, "CLASSIFICATION_TYPE": "U", "NORAD_CAT_ID": 42741, "ELEMENT_SET_NO": 999, "REV_AT_EPOCH": 3181, "BSTAR": 0, "MEAN_MOTION_DOT": -3e-08, "MEAN_MOTION_DDOT": 0}, "tle": {"line1": "1 42741U 17029B   25342.10158259 -.00000003  00000+0  00000+0 0  9996", "line2": "2 42741   0.0115  86.9530 0000189 151.0152  47.7234  1.00270118 31811"}}, "geometry": {"type": "Point", "coordinates": [-177.23413295316197, -0.00017503044075192005]}}, {"type": "Feature", "properties": {"norad_id": 44334, "name": "EUTELSAT 7C", "group": "eutelsat", "lat": -0.007176778469433548, "lon": 17.767649835306383, "alt_km": 35796.792321852314, "timestamp": "2025-12-08T19:31:48.499251+00:00", "meta": {"OBJECT_NAME": "EUTELSAT 7C", "OBJECT_ID": "2019-034B", "EPOCH": "2025-12-08T03:21:48.915936", "MEAN_MOTION": 1.00270546, "ECCENTRICITY": 0.00034146, "INCLINATION": 0.0738, "RA_OF_ASC_NODE": 178.3926, "ARG_OF_PERICENTER": 63.0985, "MEAN_ANOMALY": 253.094, "EPHEMERIS_TYPE": 0, "CLASSIFICATION_TYPE": "U", "NORAD_CAT_ID": 44334, "ELEMENT_SET_NO": 999, "REV_AT_EPOCH": 492, "BSTAR": 0, "MEAN_MOTION_DOT": 5.1e-07, "MEAN_MOTION_DDOT": 0}, "tle": {"line1": "1 44334U 19034B   25342.14014949  .00000051  00000+0  00000+0 0  9997", "line2": "2 44334   0.0738 178.3926 0003414  63.0985 253.0940  1.00270546  4920"}}, "geometry": {"type": "Point", "coordinates": [17.767649835306383, -0.007176778469433548]}}, {"type": "Feature", "properties": {"norad_id": 44624, "name": "EUTELSAT 5 WEST B", "group": "eutelsat", "lat": 0.03809438276787459, "lon": 5.801013675544524, "alt_km": 35790.87617801458, "timestamp": "2025-12-08T19:31:48.499261+00:00", "meta": {"OBJECT_NAME": "EUTELSAT 5 WEST B", "OBJECT_ID": "2019-067A", "EPOCH": "2025-12-08T06:43:52.065408", "MEAN_MOTION": 1.00270849, "ECCENTRICITY": 0.00035509, "INCLINATION": 0.0653, "RA_OF_ASC_NODE": 339.355, "ARG_OF_PERICENTER": 278.8019, "MEAN_ANOMALY": 275.1006, "EPHEMERIS_TYPE": 0, "CLASSIFICATION_TYPE": "U", "NORAD_CAT_ID": 44624, "ELEMENT_SET_NO": 999, "REV_AT_EPOCH": 2252, "BSTAR": 0, "MEAN_MOTION_DOT": -4e-07, "MEAN_MOTION_DDOT": 0}, "tle": {"line1": "1 44624U 19067A   25342.28046372 -.00000040  00000+0  00000+0 0  9994", "line2": "2 44624   0.0653 339.3550 0003550 278.8019 275.1006  1.00270849 22525"}}, "geometry": {"type": "Point", "coordinates": [5.801013675544524, 0.03809438276787459]}}, {"type": "Feature", "properties": {"norad_id": 45027, "name": "EUTELSAT KONNECT", "group": "eutelsat", "lat": -0.0553987252931177, "lon": 17.96433271910608, "alt_km": 35786.92803614415, "timestamp": "2025-12-08T19:31:48.499271+00:00", "meta": {"OBJECT_NAME": "EUTELSAT KONNECT", "OBJECT_ID": "2020-005B", "EPOCH": "2025-12-08T01:39:13.741920", "MEAN_MOTION": 1.00269431, "ECCENTRICITY": 0.00018122, "INCLINATION": 0.0721, "RA_OF_ASC_NODE": 97.1811, "ARG_OF_PERICENTER": 189.2229, "MEAN_ANOMALY": 182.6706, "EPHEMERIS_TYPE": 0, "CLASSIFICATION_TYPE": "U", "NORAD_CAT_ID": 45027, "ELEMENT_SET_NO": 999, "REV_AT_EPOCH": 2242, "BSTAR": 0, "MEAN_MOTION_DOT": 5.2e-07, "MEAN_MOTION_DDOT": 0}, "tle": {"line1": "1 45027U 20005B   25342.06890905  .00000052  00000+0  00000+0 0  9993", "line2": "2 45027   0.0721  97.1811 0001812 189.2229 182.6706  1.00269431 22428"}}, "geometry": {"type": "Point", "coordinates": [17.96433271910608, -0.0553987252931177]}}, {"type": "Feature", "properties": {"norad_id": 49056, "name": "EUTELSAT QUANTUM", "group": "eutelsat", "lat": 0.019997326015590042, "lon": 58.48525694419204, "alt_km": 35799.4755963037, "timestamp": "2025-12-08T19:31:48.499282+00:00", "meta": {"OBJECT_NAME": "EUTELSAT QUANTUM", "OBJECT_ID": "2021-069B", "EPOCH": "2025-12-08T06:42:21.457728", "MEAN_MOTION": 1.00271486, "ECCENTRICITY": 0.00036908, "INCLINATION": 0.0319, "RA_OF_ASC_NODE": 52.4153, "ARG_OF_PERICENTER": 217.2785, "MEAN_ANOMALY": 315.8847, "EPHEMERIS_TYPE": 0, "CLASSIFICATION_TYPE": "U", "NORAD_CAT_ID": 49056, "ELEMENT_SET_NO": 999, "REV_AT_EPOCH": 1601, "BSTAR": 0, "MEAN_MOTION_DOT": 1.28e-06, "MEAN_MOTION_DDOT": 0}, "tle": {"line1": "1 49056U 21069B   25342.27941502  .00000128  00000+0  00000+0 0  9997", "line2": "2 49056   0.0319  52.4153 0003690 217.2785 315.8847  1.00271486 16012"}}, "geometry": {"type": "Point", "coordinates": [58.48525694419204, 0.019997326015590042]}}, {"type": "Feature", "properties": {"norad_id": 53765, "name": "EUTELSAT KONNECT VHTS", "group": "eutelsat", "lat": -0.04666159754163104, "lon": 13.490551541824251, "alt_km": 35794.47286921649, "timestamp": "2025-12-08T19:31:48.499293+00:00", "meta": {"OBJECT_NAME": "EUTELSAT KONNECT VHTS", "OBJECT_ID": "2022-110A", "EPOCH": "2025-12-08T06:46:06.850272", "MEAN_MOTION": 1.0027004, "ECCENTRICITY": 0.00026325, "INCLINATION": 0.0619, "RA_OF_ASC_NODE": 104.5335, "ARG_OF_PERICENTER": 133.3909, "MEAN_ANOMALY": 303.6046, "EPHEMERIS_TYPE": 0, "CLASSIFICATION_TYPE": "U", "NORAD_CAT_ID": 53765, "ELEMENT_SET_NO": 999, "REV_AT_EPOCH": 491, "BSTAR": 0, "MEAN_MOTION_DOT": 2e-07, "MEAN_MOTION_DDOT": 0}, "tle": {"line1": "1 53765U 22110A   25342.28202373  .00000020  00000+0  00000+0 0  9995", "line2": "2 53765   0.0619 104.5335 0002632 133.3909 303.6046  1.00270040  4916"}}, "geometry": {"type": "Point", "coordinates": [13.490551541824251, -0.04666159754163104]}}, {"type": "Feature", "properties": {"norad_id": 54048, "name": "EUTELSAT HOTBIRD 13F", "group": "eutelsat", "lat": 0.06141732227419071, "lon": 23.78990386955922, "alt_km": 35778.819352744285, "timestamp": "2025-12-08T19:31:48.499312+00:00", "meta": {"OBJECT_NAME": "EUTELSAT HOTBIRD 13F", "OBJECT_ID": "2022-134A", "EPOCH": "2025-12-08T06:49:06.563136", "MEAN_MOTION": 1.00271316, "ECCENTRICITY": 0.00020262, "INCLINATION": 0.0494, "RA_OF_ASC_NODE": 291.7852, "ARG_OF_PERICENTER": 61.5762, "MEAN_ANOMALY": 199.2251, "EPHEMERIS_TYPE": 0, "CLASSIFICATION_TYPE": "U", "NORAD_CAT_ID": 54048, "ELEMENT_SET_NO": 999, "REV_AT_EPOCH": 1146, "BSTAR": 0, "MEAN_MOTION_DOT": 9e-07, "MEAN_MOTION_DDOT": 0}, "tle": {"line1": "1 54048U 22134A   25342.28410374  .00000090  00000+0  00000+0 0  9995", "line2": "2 54048   0.0494 291.7852 0002026  61.5762 199.2251  1.00271316 11463"}}, "geometry": {"type": "Point", "coordinates": [23.78990386955922, 0.06141732227419071]}}, {"type": "Feature", "properties": {"norad_id": 54225, "name": "EUTELSAT HOTBIRD 13G", "group": "eutelsat", "lat": 0.038013313383430974, "lon": 23.75113880065321, "alt_km": 35794.01975686128, "timestamp": "2025-12-08T19:31:48.499323+00:00", "meta": {"OBJECT_NAME": "EUTELSAT HOTBIRD 13G", "OBJECT_ID": "2022-146A", "EPOCH": "2025-12-08T06:49:06.563136", "MEAN_MOTION": 1.00270747, "ECCENTRICITY": 0.00019071, "INCLINATION": 0.0495, "RA_OF_ASC_NODE": 236.7003, "ARG_OF_PERICENTER": 310.8753, "MEAN_ANOMALY": 4.9908, "EPHEMERIS_TYPE": 0, "CLASSIFICATION_TYPE": "U", "NORAD_CAT_ID": 54225, "ELEMENT_SET_NO": 999, "REV_AT_EPOCH": 555, "BSTAR": 0, "MEAN_MOTION_DOT": 9e-07, "MEAN_MOTION_DDOT": 0}, "tle": {"line1": "1 54225U 22146A   25342.28410374  .00000090  00000+0  00000+0 0  9995", "line2": "2 54225   0.0495 236.7003 0001907 310.8753   4.9908  1.00270747  5556"}}, "geometry": {"type": "Point", "coordinates": [23.75113880065321, 0.038013313383430974]}}, {"type": "Feature", "properties": {"norad_id": 54259, "name": "EUTELSAT 10B", "group": "eutelsat", "lat": -0.04320822008804193, "lon": 20.733900949852163, "alt_km": 35790.43865803022, "timestamp": "2025-12-08T19:31:48.499334+00:00", "meta": {"OBJECT_NAME": "EUTELSAT 10B", "OBJECT_ID": "2022-157A", "EPOCH": "2025-12-08T06:48:14.145984", "MEAN_MOTION": 1.002684, "ECCENTRICITY": 8.883e-05, "INCLINATION": 0.062, "RA_OF_ASC_NODE": 100.9204, "ARG_OF_PERICENTER": 77.2749, "MEAN_ANOMALY": 11.1371, "EPHEMERIS_TYPE": 0, "CLASSIFICATION_TYPE": "U", "NORAD_CAT_ID": 54259, "ELEMENT_SET_NO": 999, "REV_AT_EPOCH": 1111, "BSTAR": 0, "MEAN_MOTION_DOT": 7e-07, "MEAN_MOTION_DDOT": 0}, "tle": {"line1": "1 54259U 22157A   25342.28349706  .00000070  00000+0  00000+0 0  9992", "line2": "2 54259   0.0620 100.9204 0000888  77.2749  11.1371  1.00268400 11110"}}, "geometry": {"type": "Point", "coordinates": [20.733900949852163, -0.04320822008804193]}}, {"type": "Feature", "properties": {"norad_id": 59346, "name": "EUTELSAT 36D", "group": "eutelsat", "lat": 0.036125902839791516, "lon": 46.6389346824177, "alt_km": 35785.97826693447, "timestamp": "2025-12-08T19:31:48.499345+00:00", "meta": {"OBJECT_NAME": "EUTELSAT 36D", "OBJECT_ID": "2024-059A", "EPOCH": "2025-12-08T00:04:42.159936", "MEAN_MOTION": 1.00270249, "ECCENTRICITY": 7.397e-05, "INCLINATION": 0.0173, "RA_OF_ASC_NODE": 323.6814, "ARG_OF_PERICENTER": 0.9283, "MEAN_ANOMALY": 149.4537, "EPHEMERIS_TYPE": 0, "CLASSIFICATION_TYPE": "U", "NORAD_CAT_ID": 59346, "ELEMENT_SET_NO": 999, "REV_AT_EPOCH": 623, "BSTAR": 0, "MEAN_MOTION_DOT": 1.59e-06, "MEAN_MOTION_DDOT": 0}, "tle": {"line1": "1 59346U 24059A   25342.00326574  .00000159  00000+0  00000+0 0  9993", "line2": "2 59346   0.0173 323.6814 0000739   0.9283 149.4537  1.00270249  6237"}}, "geometry": {"type": "Point", "coordinates": [46.6389346824177, 0.036125902839791516]}}]}